NORAD_CAT_ID,OBJECT_NAME,OBJECT_TYPE,EPOCH,MEAN_MOTION,ECCENTRICITY,INCLINATION,RA_OF_ASC_NODE,ARG_OF_PERICENTER,MEAN_ANOMALY,BSTAR,MEAN_MOTION_DOT,MEAN_MOTION_DDOT,TLE_LINE0,TLE_LINE1,TLE_LINE2,SEMIMAJOR_AXIS,PERIOD,APOGEE,PERIGEE,DECAYED
50841.0,STARLINK-3300,PAYLOAD,2024-08-15 04:06:51,15.0883622,0.00015,53.2166,224.7672,94.4452,265.6712,6.9108e-05,8.12e-06,0.0,0 STARLINK-3300,1 50841U 22001AQ  24228.17143152  .00000812  00000-0  69108-4 0  9994,2 50841  53.2166 224.7672 0001500  94.4452 265.6712 15.08836220145281,6917.892,95.438,540.795,538.719,0.0
50841.0,STARLINK-3300,PAYLOAD,2024-08-15 05:42:14,15.08838261,0.000147,53.2166,224.4696,94.7119,265.4041,4.3523e-05,4.05e-06,0.0,0 STARLINK-3300,1 50841U 22001AQ  24228.23767141  .00000405  00000-0  43523-4 0  9992,2 50841  53.2166 224.4696 0001470  94.7119 265.4041 15.08838261143999,6917.886,95.438,540.768,538.734,0.0
50841.0,STARLINK-3300,PAYLOAD,2024-08-15 16:49:56,15.08843401,0.0001443,53.2164,222.3879,93.0251,267.0907,6.0545e-05,6.76e-06,0.0,0 STARLINK-3300,1 50841U 22001AQ  24228.70134832  .00000676  00000-0  60545-4 0  9992,2 50841  53.2164 222.3879 0001443  93.0251 267.0907 15.08843401144066,6917.87,95.437,540.733,538.737,0.0
50841.0,STARLINK-3300,PAYLOAD,2024-08-16 07:08:24,15.08844777,0.0001367,53.2147,219.7105,91.5707,268.5442,0.00031425,4.718e-05,0.0,0 STARLINK-3300,1 50841U 22001AQ  24229.29751088  .00004718  00000-0  31425-3 0  9990,2 50841  53.2147 219.7105 0001367  91.5707 268.5442 15.08844777145454,6917.866,95.437,540.676,538.785,0.0
50841.0,STARLINK-3300,PAYLOAD,2024-08-17 05:23:48,15.08843502,0.0001439,53.2147,215.547,91.5699,268.5457,9.1125e-05,1.163e-05,0.0,0 STARLINK-3300,1 50841U 22001AQ  24230.22487128  .00001163  00000-0  91125-4 0  9991,2 50841  53.2147 215.5470 0001439  91.5699 268.5457 15.08843502145599,6917.87,95.437,540.73,538.739,0.0
50841.0,STARLINK-3300,PAYLOAD,2024-08-17 08:34:35,15.08844704,0.0001448,53.2148,214.9505,92.0069,268.1089,0.00010363,1.362e-05,0.0,0 STARLINK-3300,1 50841U 22001AQ  24230.35735028  .00001362  00000-0  10363-3 0  9995,2 50841  53.2148 214.9505 0001448  92.0069 268.1089 15.08844704144310,6917.866,95.437,540.733,538.729,0.0
50841.0,STARLINK-3300,PAYLOAD,2024-08-18 05:14:35,15.08844975,0.0001493,53.2163,211.0834,90.2561,269.8602,4.3593e-05,4.06e-06,0.0,0 STARLINK-3300,1 50841U 22001AQ  24231.21846929  .00000406  00000-0  43593-4 0  9994,2 50841  53.2163 211.0834 0001493  90.2561 269.8602 15.08844975144440,6917.865,95.437,540.763,538.697,0.0
50841.0,STARLINK-3300,PAYLOAD,2024-08-18 08:25:21,15.08845141,0.0001495,53.2163,210.4888,90.5876,269.5287,4.0224e-05,3.52e-06,0.0,0 STARLINK-3300,1 50841U 22001AQ  24231.35094860  .00000352  00000-0  40224-4 0  9996,2 50841  53.2163 210.4888 0001495  90.5876 269.5287 15.08845141145764,6917.865,95.437,540.764,538.695,0.0
50841.0,STARLINK-3300,PAYLOAD,2024-08-19 03:30:00,15.08834909,0.0001482,53.2162,206.9187,96.669,263.4471,1.7067e-05,-1.6e-07,0.0,0 STARLINK-3300,1 50841U 22001AQ  24232.14583495 -.00000016  00000-0  17067-4 0  9998,2 50841  53.2162 206.9187 0001482  96.6690 263.4471 15.08834909145883,6917.896,95.438,540.786,538.736,0.0
50841.0,STARLINK-3300,PAYLOAD,2024-08-20 04:56:09,15.08845501,0.0001419,53.2154,202.1623,78.9365,281.1786,9.8176e-05,1.275e-05,0.0,0 STARLINK-3300,1 50841U 22001AQ  24233.20566802  .00001275  00000-0  98176-4 0  9996,2 50841  53.2154 202.1623 0001419  78.9365 281.1786 15.08845501146044,6917.864,95.437,540.71,538.747,0.0
50841.0,STARLINK-3300,PAYLOAD,2024-08-20 08:06:56,15.08844517,0.000145,53.216,201.5707,87.333,272.7828,0.00010138,1.326e-05,0.0,0 STARLINK-3300,1 50841U 22001AQ  24233.33814843  .00001326  00000-0  10138-3 0  9999,2 50841  53.2160 201.5707 0001450  87.3330 272.7828 15.08844517144764,6917.867,95.437,540.735,538.728,0.0
50841.0,STARLINK-3300,PAYLOAD,2024-08-21 04:46:57,15.08839726,0.0001417,53.216,197.7035,83.6025,276.5128,9.9869e-05,1.302e-05,0.0,0 STARLINK-3300,1 50841U 22001AQ  24234.19927301  .00001302  00000-0  99869-4 0  9991,2 50841  53.2160 197.7035 0001417  83.6025 276.5128 15.08839726146197,6917.881,95.438,540.726,538.766,0.0
50841.0,STARLINK-3300,PAYLOAD,2024-08-21 22:16:12,15.0883657,0.0001494,53.2167,194.4334,90.3994,269.717,-1.6271e-05,-5.47e-06,0.0,0 STARLINK-3300,1 50841U 22001AQ  24234.92792008 -.00000547  00000-0 -16271-4 0  9994,2 50841  53.2167 194.4334 0001494  90.3994 269.7170 15.08836570146303,6917.891,95.438,540.789,538.722,0.0
